GLOBALSTAR M094         
1 39074U 13005C   26024.25868380 -.00000092  00000+0  65280-4 0  9992
2 39074  51.9933 229.0215 0001189  72.5664 287.5332 12.62266541600297
GLOBALSTAR M096         
1 39075U 13005D   26023.95495396 -.00000068  00000+0  20056-3 0  9996
2 39075  52.0076 278.6331 0000951  56.4540 303.6418 12.62262526599175
GLOBALSTAR M078         
1 39076U 13005E   26024.24551117 -.00000070  00000+0  18634-3 0  9996
2 39076  51.9896   1.9562 0000719 333.3377  26.7452 12.62274013597830
GLOBALSTAR M095         
1 39077U 13005F   26024.19276791 -.00000097  00000+0  35015-4 0  9995
2 39077  52.0101 359.5166 0000602  22.9902 337.0992 12.62267884597688
GLOBALSTAR M087         
1 52888U 22064A   26024.44351217 -.00000083  00000+0  11545-3 0  9996
2 52888  51.9991 140.0738 0000901  94.2476 265.8494 12.62262493172984
